{"type":"FeatureCollection","features":[{"type":"Feature","properties":{"n":"R\u00f6merhalle Mautern","k":""},"geometry":{"type":"Point","coordinates":[15.5748334,48.3948697]}},{"type":"Feature","properties":{"n":"Hl. Severin","k":"wayside_shrine"},"geometry":{"type":"Point","coordinates":[15.5851163,48.3914893]}},{"type":"Feature","properties":{"n":"Weingut Nikolaihof Wachau","k":""},"geometry":{"type":"Point","coordinates":[15.5776367,48.394295]}},{"type":"Feature","properties":{"n":"G\u00e4stehaus Nikolaihof","k":"hotel"},"geometry":{"type":"Point","coordinates":[15.5805625,48.3949828]}},{"type":"Feature","properties":{"n":"Severin","k":"artwork"},"geometry":{"type":"Point","coordinates":[15.5753998,48.3941818]}},{"type":"Feature","properties":{"n":"Der Heilige Severin","k":"information"},"geometry":{"type":"Point","coordinates":[15.5755006,48.3941588]}},{"type":"Feature","properties":{"n":"Goldhauben- und Trachtenmuseum","k":"museum"},"geometry":{"type":"Point","coordinates":[15.5778969,48.3928446]}},{"type":"Feature","properties":{"n":"Severingasse","k":""},"geometry":{"type":"LineString","coordinates":[[15.5826061,48.3936658],[15.5820765,48.394923],[15.58207,48.3949554],[15.5820333,48.3951568],[15.5819871,48.3954018],[15.5818879,48.3956609],[15.581739,48.3960551],[15.5817222,48.3960997]]}},{"type":"Feature","properties":{"n":"","k":"yes"},"geometry":{"type":"LineString","coordinates":[[15.5836795,48.4038475],[15.5836331,48.4039042],[15.5834392,48.4038459],[15.5829461,48.4036715],[15.5827096,48.4035838],[15.5825056,48.4035081],[15.5822696,48.4034238],[15.5820459,48.4033488],[15.5817804,48.4032597],[15.5816754,48.4032245],[15.5815859,48.403144],[15.5816056,48.4031177],[15.5815632,48.4031058],[15.5814856,48.4030829],[15.5814746,48.4031016],[15.581446,48.4030934],[15.5813528,48.4030672]]}},{"type":"Feature","properties":{"n":"R\u00f6mermuseum Mautern","k":"museum"},"geometry":{"type":"Polygon","coordinates":[[[15.574799,48.3945303],[15.5748923,48.3945566],[15.5750632,48.3946048],[15.5750788,48.3945804],[15.5751131,48.3945267],[15.5749233,48.394474],[15.5748517,48.3944541],[15.574799,48.3945303]]]}},{"type":"Feature","properties":{"n":"Janerhof","k":"castle"},"geometry":{"type":"Polygon","coordinates":[[[15.5791299,48.3924398],[15.5796468,48.3925242],[15.5796392,48.3925589],[15.5796298,48.3926017],[15.5796214,48.3926292],[15.5795649,48.392688],[15.5795267,48.3927137],[15.5794644,48.3926798],[15.5794839,48.3926055],[15.5794161,48.3925933],[15.5792162,48.3925572],[15.5791824,48.3927303],[15.5792582,48.3927369],[15.5792506,48.3927755],[15.5792424,48.3928176],[15.5790581,48.3928017],[15.5791299,48.3924398]]]}},{"type":"Feature","properties":{"n":"Nikolaihof","k":""},"geometry":{"type":"Polygon","coordinates":[[[15.5778859,48.3943647],[15.577852,48.3944893],[15.5777318,48.3946629],[15.577649,48.3946293],[15.5776851,48.3945867],[15.5776064,48.3945648],[15.5776479,48.3945034],[15.5775512,48.3944874],[15.5775323,48.3945198],[15.5773054,48.3944907],[15.5772796,48.3945897],[15.5771783,48.3945794],[15.577199,48.394477],[15.5772458,48.3943605],[15.5773089,48.3943705],[15.5773205,48.3943416],[15.5772164,48.3943198],[15.5771942,48.3943629],[15.577076,48.3943387],[15.5771227,48.3942436],[15.5771627,48.3941543],[15.5773196,48.3941862],[15.5773553,48.3941213],[15.5774195,48.3941358],[15.5774372,48.3941002],[15.5774644,48.3940488],[15.5777073,48.3941041],[15.5779406,48.3941193],[15.5779463,48.3941807],[15.5779215,48.3942888],[15.5778885,48.3942857],[15.5778872,48.3942984],[15.5778842,48.3943177],[15.5777835,48.3943125],[15.5777925,48.3942218],[15.5777134,48.3942171],[15.577717,48.394161],[15.5776361,48.394148],[15.5775383,48.394125],[15.5775214,48.3941574],[15.5775072,48.3941545],[15.5774965,48.3941793],[15.5774591,48.3941716],[15.577436,48.3942153],[15.5774876,48.3942265],[15.5774209,48.3943877],[15.577701,48.3944272],[15.577717,48.3943275],[15.5778165,48.3943318],[15.5778788,48.3943427],[15.5778859,48.3943647]]]}},{"type":"Feature","properties":{"n":"","k":"city_wall"},"geometry":{"type":"LineString","coordinates":[[15.5775789,48.4016735],[15.5776608,48.4017795],[15.5777487,48.4018844],[15.5779238,48.4019843]]}},{"type":"Feature","properties":{"n":"","k":"city_wall"},"geometry":{"type":"LineString","coordinates":[[15.576535,48.4006553],[15.57675,48.4007221],[15.576811,48.4007411],[15.5768481,48.4007526],[15.576933,48.4007794],[15.577166,48.4009128],[15.5771609,48.4009612],[15.5770638,48.4010341],[15.5769513,48.4011062],[15.5767743,48.4009599],[15.5768201,48.4009332],[15.5765917,48.4007492],[15.5764872,48.4006636]]}},{"type":"Feature","properties":{"n":"","k":"city_wall"},"geometry":{"type":"LineString","coordinates":[[15.5754109,48.3935825],[15.5755221,48.393395]]}},{"type":"Feature","properties":{"n":"","k":"city_wall"},"geometry":{"type":"LineString","coordinates":[[15.5749717,48.3942752],[15.575222,48.3939065]]}},{"type":"Feature","properties":{"n":"R\u00f6mermauer","k":"citywalls"},"geometry":{"type":"LineString","coordinates":[[15.575515,48.3951184],[15.5754565,48.3951033],[15.5753965,48.3950875],[15.575045,48.3949998],[15.5749295,48.3949663],[15.5745658,48.3948609],[15.5746385,48.3947504],[15.5747477,48.3945981],[15.574799,48.3945303],[15.5748517,48.3944541],[15.574808,48.3944029],[15.5747784,48.3943896],[15.5747604,48.3943635],[15.5747656,48.3943392],[15.5747853,48.3943171],[15.57482,48.3943052],[15.5748595,48.3943075],[15.5749412,48.3943253],[15.5749717,48.3942752],[15.575222,48.3939065],[15.5751779,48.3938573],[15.5751884,48.3938244],[15.5752877,48.3938201],[15.575306,48.393781],[15.5753691,48.3936589],[15.5754109,48.3935825],[15.5755221,48.393395]]}},{"type":"Feature","properties":{"n":"","k":"city_wall"},"geometry":{"type":"LineString","coordinates":[[15.5752877,48.3938201],[15.575306,48.393781],[15.5753691,48.3936589]]}},{"type":"Feature","properties":{"n":"","k":"city_wall"},"geometry":{"type":"LineString","coordinates":[[15.5753965,48.3950875],[15.5754565,48.3951033],[15.575515,48.3951184]]}},{"type":"Feature","properties":{"n":"","k":"city_wall"},"geometry":{"type":"LineString","coordinates":[[15.5748517,48.3944541],[15.574808,48.3944029],[15.5747784,48.3943896],[15.5747604,48.3943635],[15.5747656,48.3943392],[15.5747853,48.3943171],[15.57482,48.3943052],[15.5748595,48.3943075],[15.5749412,48.3943253]]}},{"type":"Feature","properties":{"n":"Linzertor","k":"city_gate"},"geometry":{"type":"Polygon","coordinates":[[[15.5763279,48.4001882],[15.5764707,48.4002156],[15.5764577,48.4002456],[15.5764494,48.4002645],[15.5764416,48.4002825],[15.5764237,48.4003236],[15.5762596,48.4002921],[15.5762616,48.4002875],[15.5762857,48.4002322],[15.5763066,48.4001841],[15.5763279,48.4001882]]]}},{"type":"Feature","properties":{"n":"Margaretenkapelle","k":"museum"},"geometry":{"type":"Polygon","coordinates":[[[15.5780096,48.3928375],[15.5781576,48.3928792],[15.5781283,48.3929252],[15.5780823,48.3929123],[15.5780749,48.3929238],[15.5779729,48.392895],[15.5779935,48.3928627],[15.5780096,48.3928375]]]}},{"type":"Feature","properties":{"n":"Hufeisenturm","k":"attraction"},"geometry":{"type":"Polygon","coordinates":[[[15.5748517,48.3944541],[15.5749233,48.394474],[15.5749885,48.3943579],[15.5749326,48.394343],[15.5749412,48.3943253],[15.5748595,48.3943075],[15.57482,48.3943052],[15.5747853,48.3943171],[15.5747656,48.3943392],[15.5747604,48.3943635],[15.5747784,48.3943896],[15.574808,48.3944029],[15.5748517,48.3944541]]]}}]}