{"type":"FeatureCollection","features":[{"type":"Feature","properties":{"n":"Theoderic's campaign"},"geometry":{"type":"LineString","coordinates":[[13.48119,45.88256],[13.47261,45.88145],[13.46714,45.88074],[13.46132,45.87795],[13.44947,45.86977],[13.43722,45.85953],[13.43631,45.85777],[13.42712,45.85141],[13.41537,45.84612],[13.40966,45.84098],[13.40121,45.83713],[13.402,45.83212],[13.40176,45.82915],[13.3973,45.82566],[13.39373,45.82216],[13.39747,45.81655],[13.3964,45.81305],[13.39168,45.80375],[13.37676,45.78196],[13.37374,45.77813],[13.36852,45.76958],[13.35604,45.76956],[13.31595,45.78464],[13.26113,45.8167],[13.24894,45.82745],[13.23431,45.82736],[13.226,45.82916],[13.21565,45.83349],[13.21002,45.83251],[13.19114,45.83431],[13.12639,45.81544],[13.09144,45.80677],[13.076,45.80334],[13.02868,45.79394],[12.98795,45.78853],[12.98083,45.78413],[12.92147,45.76305],[12.91648,45.75909],[12.91647,45.75672],[12.91226,45.75595],[12.90722,45.75557],[12.90085,45.75576],[12.89059,45.75559],[12.87767,45.75459],[12.8738,45.75358],[12.869,45.75396],[12.86339,45.75395],[12.85853,45.75412],[12.85078,45.7545],[12.846,45.7553],[12.84365,45.75671],[12.82646,45.7635],[12.82534,45.76437],[12.80892,45.76384],[12.7961,45.76362],[12.78859,45.76369],[12.77359,45.76574],[12.77033,45.76642],[12.76681,45.76761],[12.76393,45.7695],[12.75915,45.77243],[12.7571,45.77409],[12.7454,45.77414],[12.73829,45.77433],[12.72714,45.77446],[12.72018,45.77446],[12.71038,45.77456],[12.69742,45.77467],[12.67737,45.77481],[12.66361,45.77495],[12.65928,45.77549],[12.65689,45.77607],[12.65134,45.77774],[12.64704,45.77832],[12.64371,45.77825],[12.63557,45.77768],[12.62839,45.77724],[12.62352,45.77703],[12.61557,45.77804],[12.61041,45.77865],[12.60633,45.77919],[12.57876,45.78266],[12.57118,45.78336],[12.5665,45.78359],[12.55429,45.78438],[12.54634,45.78484],[12.544,45.78479],[12.53975,45.78416],[12.51322,45.7791],[12.49616,45.77587],[12.48739,45.77428],[12.47924,45.77021],[12.47649,45.76671],[12.47453,45.76532],[12.46691,45.76447],[12.43185,45.75946],[12.4122,45.75687],[12.39473,45.75432],[12.38757,45.75273],[12.38434,45.75289],[12.38094,45.75142],[12.37228,45.75031],[12.3707,45.74921],[12.36247,45.74797],[12.3601,45.7472],[12.35335,45.74697],[12.34557,45.74564],[12.33726,45.74543],[12.33381,45.74601],[12.32883,45.74629],[12.32215,45.74441],[12.31525,45.74336],[12.30937,45.74252],[12.29887,45.74112],[12.29249,45.74014],[12.28795,45.73952],[12.28358,45.73876],[12.28118,45.73862],[12.27791,45.73807],[12.27598,45.73788],[12.26761,45.73669],[12.26421,45.73608],[12.26114,45.73578],[12.25623,45.7351],[12.25084,45.73427],[12.24717,45.73382],[12.23853,45.73256],[12.22758,45.73109],[12.2206,45.73005],[12.21789,45.7297],[12.20966,45.72849],[12.19735,45.72679],[12.18735,45.72532],[12.17068,45.72299],[12.16588,45.72235],[12.16201,45.72179],[12.15804,45.72127],[12.15584,45.72087],[12.15109,45.72023],[12.14369,45.71915],[12.13938,45.71856],[12.13161,45.71744],[12.12912,45.71711],[12.10622,45.71376],[12.10299,45.71342],[12.09636,45.7125],[12.09114,45.71169],[12.08813,45.7113],[12.08055,45.71018],[12.07523,45.70936],[12.07263,45.70904],[12.06212,45.70748],[12.03926,45.70428],[12.03064,45.70299],[12.01707,45.7011],[12.00229,45.6989],[11.99538,45.69793],[11.9863,45.69661],[11.98187,45.69594],[11.97394,45.69485],[11.9656,45.69357],[11.95196,45.69164],[11.94555,45.69069],[11.92657,45.68796],[11.91926,45.68713],[11.91423,45.68612],[11.91042,45.68556],[11.90618,45.68512],[11.90245,45.68436],[11.89966,45.68401],[11.89413,45.68302],[11.89053,45.68242],[11.88692,45.68201],[11.88279,45.68139],[11.87848,45.68067],[11.87515,45.68011],[11.87038,45.67953],[11.86642,45.67904],[11.86292,45.67845],[11.86048,45.67808],[11.85762,45.67759],[11.85013,45.67662],[11.84618,45.67637],[11.84135,45.67517],[11.83021,45.67354],[11.81302,45.67119],[11.80453,45.66979],[11.79189,45.66734],[11.78869,45.6675],[11.78321,45.66662],[11.77202,45.665],[11.75297,45.66188],[11.74316,45.66051],[11.73518,45.65946],[11.72994,45.65857],[11.72532,45.65804],[11.71653,45.65542],[11.70935,45.65467],[11.70334,45.652],[11.69775,45.64493],[11.68748,45.63819],[11.67278,45.6299],[11.66605,45.6253],[11.65393,45.61705],[11.64379,45.61166],[11.63909,45.61055],[11.63694,45.61055],[11.63374,45.61062],[11.6302,45.60913],[11.62701,45.60586],[11.62364,45.60308],[11.62237,45.60062],[11.62024,45.5995],[11.6139,45.59501],[11.60492,45.58945],[11.59808,45.58661],[11.58731,45.5815],[11.58059,45.5761],[11.57567,45.57243],[11.57029,45.5685],[11.56703,45.56483],[11.56084,45.55925],[11.55706,45.556],[11.55456,45.55338],[11.55084,45.55018],[11.55001,45.54989],[11.5466,45.5483],[11.54137,45.54619],[11.53567,45.54547],[11.53281,45.54467],[11.52407,45.54117],[11.51596,45.53784],[11.50816,45.53459],[11.50117,45.53046],[11.49269,45.52524],[11.48784,45.52346],[11.48094,45.5213],[11.45768,45.5142],[11.44774,45.51062],[11.4414,45.50579],[11.43587,45.49992],[11.42443,45.48799],[11.41286,45.4757],[11.40401,45.4631],[11.40076,45.46218],[11.3946,45.45966],[11.38612,45.45746],[11.38383,45.4555],[11.37996,45.45192],[11.37193,45.44309],[11.36846,45.44103],[11.35108,45.43428],[11.32126,45.42149],[11.2859,45.41235],[11.26586,45.40886],[11.24297,45.41023],[11.21326,45.413],[11.18942,45.41576],[11.17262,45.41923],[11.15746,45.42],[11.1383,45.4216],[11.11583,45.41836],[11.08464,45.42199],[11.07143,45.42364],[11.06443,45.42445],[11.05235,45.42602],[11.04625,45.42911],[11.04277,45.43269],[11.0412,45.43362],[11.03985,45.43429],[11.03747,45.43516],[11.03044,45.43632],[11.02806,45.43669],[11.02391,45.4363],[11.01956,45.43554],[11.01611,45.43504],[11.01373,45.43477],[11.01069,45.43389],[11.0091,45.4337],[11.00316,45.43433],[10.99846,45.43545],[10.99469,45.4375],[10.9932,45.43883],[10.98819,45.43937],[10.9932,45.43883],[10.99142,45.43799],[10.98429,45.4233],[10.98659,45.41654],[10.98915,45.41088],[10.99319,45.39202],[10.99519,45.38252],[10.99331,45.37709],[10.99036,45.37022],[10.99052,45.36645],[10.99301,45.36],[10.99516,45.3531],[10.9979,45.34377],[10.9991,45.3413],[11.00174,45.33463],[11.0037,45.31874],[11.00421,45.30873],[11.00674,45.30174],[11.00869,45.29389],[11.01422,45.26573],[11.01739,45.24974],[11.02119,45.24256],[11.03087,45.22707],[11.04227,45.20864],[11.05194,45.19411],[11.05725,45.18885],[11.06814,45.18139],[11.07784,45.17505],[11.08463,45.1662],[11.09398,45.14893],[11.09986,45.13938],[11.10803,45.12595],[11.12211,45.10628],[11.12964,45.09577],[11.13406,45.06594],[11.09921,45.00932],[11.06645,44.91279],[11.05994,44.87951],[11.05148,44.83177],[11.04196,44.79198],[11.03913,44.75864],[11.03103,44.75106],[11.01946,44.73308],[10.98621,44.69661],[10.95531,44.67029],[10.92681,44.64616],[10.94043,44.64031],[10.94827,44.63718],[10.95698,44.63317],[10.96386,44.63064],[10.9902,44.61951],[11.01171,44.61044],[11.01821,44.60769],[11.02574,44.60452],[11.03126,44.60242],[11.04079,44.59912],[11.04208,44.59863],[11.06373,44.59114],[11.0664,44.59022],[11.07325,44.58797],[11.07899,44.58581],[11.09306,44.58089],[11.10358,44.57723],[11.11223,44.5744],[11.12812,44.5687],[11.1435,44.56324],[11.14955,44.56125],[11.15195,44.5604],[11.15575,44.55914],[11.16954,44.55429],[11.17541,44.55222],[11.18734,44.54814],[11.19096,44.54684],[11.19876,44.54417],[11.20414,44.54217],[11.21355,44.5389],[11.22377,44.53532],[11.23543,44.53144],[11.24066,44.52942],[11.25359,44.52485],[11.27068,44.51904],[11.2841,44.51419],[11.2866,44.51278],[11.29114,44.51076],[11.29525,44.50917],[11.30564,44.50687],[11.31421,44.5039],[11.31981,44.50185],[11.3277,44.49909],[11.33399,44.49684],[11.33782,44.49564],[11.34166,44.49505],[11.34627,44.49429],[11.34933,44.49309],[11.35439,44.49123],[11.35781,44.4899],[11.36553,44.48692],[11.3681,44.48602],[11.37013,44.48526],[11.37813,44.48215],[11.38099,44.48131],[11.38246,44.48061],[11.38882,44.4781],[11.39338,44.47636],[11.3968,44.47507],[11.39871,44.47429],[11.40866,44.47053],[11.41139,44.46952],[11.41562,44.46789],[11.41864,44.46677],[11.42165,44.46567],[11.42503,44.46431],[11.43056,44.46229],[11.43184,44.46185],[11.43628,44.46014],[11.43936,44.45845],[11.44732,44.45574],[11.45614,44.45252],[11.46214,44.45028],[11.46767,44.4482],[11.48061,44.44325],[11.49354,44.43841],[11.49692,44.4371],[11.50064,44.43576],[11.50377,44.43455],[11.50754,44.43293],[11.51069,44.43209],[11.51463,44.43042],[11.51863,44.42884],[11.53391,44.42308],[11.54488,44.41889],[11.55213,44.41607],[11.55522,44.41492],[11.56171,44.41238],[11.56624,44.41069],[11.56858,44.40974],[11.57396,44.40768],[11.58501,44.40343],[11.5919,44.40093],[11.59619,44.39912],[11.60815,44.39451],[11.62358,44.38858],[11.64234,44.38133],[11.65145,44.37785],[11.66113,44.37406],[11.66971,44.37087],[11.67436,44.36902],[11.68242,44.36587],[11.69162,44.36227],[11.69591,44.36063],[11.70497,44.35707],[11.70906,44.35553],[11.71196,44.35438],[11.71394,44.3535],[11.72156,44.35087],[11.72691,44.34642],[11.73236,44.34433],[11.74038,44.3432],[11.75307,44.33815],[11.76512,44.33326],[11.76968,44.3316],[11.77779,44.32867],[11.7793,44.32777],[11.79423,44.32172],[11.81205,44.31464],[11.81768,44.31309],[11.82161,44.31182],[11.82843,44.30801],[11.84298,44.30213],[11.84893,44.29979],[11.85645,44.29672],[11.85845,44.29584],[11.87636,44.28865],[11.85845,44.29584],[11.85645,44.29672],[11.84893,44.29979],[11.84298,44.30213],[11.82843,44.30801],[11.82161,44.31182],[11.81768,44.31309],[11.81205,44.31464],[11.79423,44.32172],[11.7793,44.32777],[11.77779,44.32867],[11.76968,44.3316],[11.76512,44.33326],[11.75307,44.33815],[11.74038,44.3432],[11.73236,44.34433],[11.72691,44.34642],[11.72156,44.35087],[11.71394,44.3535],[11.71196,44.35438],[11.70906,44.35553],[11.70497,44.35707],[11.69591,44.36063],[11.69162,44.36227],[11.68242,44.36587],[11.67436,44.36902],[11.66971,44.37087],[11.66113,44.37406],[11.65145,44.37785],[11.64234,44.38133],[11.62358,44.38858],[11.60815,44.39451],[11.59619,44.39912],[11.5919,44.40093],[11.58501,44.40343],[11.57396,44.40768],[11.56858,44.40974],[11.56624,44.41069],[11.56171,44.41238],[11.55522,44.41492],[11.55213,44.41607],[11.54488,44.41889],[11.53391,44.42308],[11.51863,44.42884],[11.51463,44.43042],[11.51069,44.43209],[11.50754,44.43293],[11.50377,44.43455],[11.50064,44.43576],[11.49692,44.4371],[11.49354,44.43841],[11.48061,44.44325],[11.46767,44.4482],[11.46214,44.45028],[11.45614,44.45252],[11.44732,44.45574],[11.43936,44.45845],[11.43628,44.46014],[11.43184,44.46185],[11.43056,44.46229],[11.42503,44.46431],[11.42165,44.46567],[11.41864,44.46677],[11.41562,44.46789],[11.41139,44.46952],[11.40866,44.47053],[11.39871,44.47429],[11.3968,44.47507],[11.39338,44.47636],[11.38882,44.4781],[11.38246,44.48061],[11.38099,44.48131],[11.37813,44.48215],[11.37013,44.48526],[11.3681,44.48602],[11.36553,44.48692],[11.35781,44.4899],[11.35439,44.49123],[11.34933,44.49309],[11.34627,44.49429],[11.34166,44.49505],[11.33782,44.49564],[11.33399,44.49684],[11.3277,44.49909],[11.31981,44.50185],[11.31421,44.5039],[11.30564,44.50687],[11.29525,44.50917],[11.29114,44.51076],[11.2866,44.51278],[11.2841,44.51419],[11.27068,44.51904],[11.25359,44.52485],[11.24066,44.52942],[11.23543,44.53144],[11.22377,44.53532],[11.21355,44.5389],[11.20414,44.54217],[11.19876,44.54417],[11.19096,44.54684],[11.18734,44.54814],[11.17541,44.55222],[11.16954,44.55429],[11.15575,44.55914],[11.15195,44.5604],[11.14955,44.56125],[11.1435,44.56324],[11.12812,44.5687],[11.11223,44.5744],[11.10358,44.57723],[11.09306,44.58089],[11.07899,44.58581],[11.07325,44.58797],[11.0664,44.59022],[11.06373,44.59114],[11.04208,44.59863],[11.04079,44.59912],[11.03126,44.60242],[11.02574,44.60452],[11.01821,44.60769],[11.01171,44.61044],[10.9902,44.61951],[10.96386,44.63064],[10.95698,44.63317],[10.94827,44.63718],[10.94043,44.64031],[10.92681,44.64616],[10.92259,44.64812],[10.91588,44.65082],[10.90632,44.65484],[10.89629,44.65861],[10.88439,44.65754],[10.8742,44.65364],[10.8672,44.65072],[10.85702,44.64629],[10.83891,44.64791],[10.83691,44.64837],[10.82383,44.64962],[10.80815,44.65076],[10.79675,44.65165],[10.78897,44.65424],[10.7792,44.65409],[10.76692,44.65529],[10.75384,44.65682],[10.74848,44.65757],[10.73571,44.66189],[10.71354,44.66842],[10.69886,44.67372],[10.68967,44.67804],[10.68587,44.67993],[10.67554,44.68345],[10.6706,44.68475],[10.6649,44.68661],[10.65568,44.68995],[10.64892,44.69231],[10.63677,44.69657],[10.6331,44.69786],[10.63106,44.69854],[10.62902,44.69926],[10.62415,44.70089],[10.61841,44.70291],[10.61373,44.70451],[10.60667,44.70697],[10.59833,44.71],[10.59731,44.71031],[10.59375,44.71154],[10.58715,44.71379],[10.58503,44.71451],[10.57976,44.7164],[10.57476,44.71814],[10.57247,44.71883],[10.56557,44.72144],[10.56091,44.72293],[10.51841,44.73766],[10.50411,44.74256],[10.4907,44.74721],[10.46223,44.75695],[10.45808,44.7584],[10.44519,44.7628],[10.43905,44.76496],[10.43644,44.76578],[10.43352,44.76785],[10.42832,44.77037],[10.42279,44.77048],[10.41753,44.77226],[10.41197,44.7741],[10.40615,44.77614],[10.39815,44.77891],[10.38123,44.78461],[10.37742,44.78598],[10.37198,44.78771],[10.36787,44.78914],[10.35783,44.79259],[10.33863,44.7991],[10.3363,44.79981],[10.33314,44.80048],[10.32812,44.80144],[10.32232,44.80259],[10.31247,44.80468],[10.29749,44.80776],[10.28619,44.81001],[10.27084,44.8132],[10.26058,44.81526],[10.24975,44.81745],[10.23413,44.82055],[10.20807,44.82604],[10.18141,44.8323],[10.14749,44.84181],[10.10343,44.85429],[10.09447,44.85684],[10.08709,44.85893],[10.07167,44.86339],[10.05313,44.86863],[10.03469,44.87374],[9.97965,44.88972],[9.928,44.91918],[9.90535,44.93223],[9.86956,44.95293],[9.86037,44.96036],[9.83608,44.97259],[9.83101,44.97438],[9.82616,44.97748],[9.81895,44.98209],[9.80992,44.9873],[9.79177,44.99788],[9.77579,45.00696],[9.74094,45.02719],[9.73195,45.03227],[9.72245,45.03773],[9.71668,45.04121],[9.7141,45.04252],[9.7058,45.04743],[9.69308,45.05281],[9.68901,45.05903],[9.68123,45.06557],[9.64087,45.07213],[9.60892,45.08374],[9.59797,45.09068],[9.59271,45.11539],[9.58984,45.13311],[9.5813,45.15434],[9.57438,45.16954],[9.55951,45.17989],[9.54586,45.19305],[9.52979,45.20741],[9.51088,45.21975],[9.49339,45.23203],[9.4644,45.25313],[9.44713,45.26673],[9.44315,45.28432],[9.42915,45.29726],[9.41731,45.30104],[9.44983,45.30722],[9.48464,45.30965],[9.49932,45.31304],[9.51576,45.32581],[9.49932,45.31304],[9.48464,45.30965],[9.44983,45.30722],[9.41731,45.30104],[9.42915,45.29726],[9.44315,45.28432],[9.44713,45.26673],[9.4644,45.25313],[9.49339,45.23203],[9.51088,45.21975],[9.52979,45.20741],[9.54586,45.19305],[9.55951,45.17989],[9.57438,45.16954],[9.5813,45.15434],[9.58984,45.13311],[9.59271,45.11539],[9.59797,45.09068],[9.60892,45.08374],[9.64087,45.07213],[9.68123,45.06557],[9.68901,45.05903],[9.69308,45.05281],[9.7058,45.04743],[9.7141,45.04252],[9.71668,45.04121],[9.72245,45.03773],[9.73195,45.03227],[9.74094,45.02719],[9.77579,45.00696],[9.79177,44.99788],[9.80992,44.9873],[9.81895,44.98209],[9.82616,44.97748],[9.83101,44.97438],[9.83608,44.97259],[9.86037,44.96036],[9.86956,44.95293],[9.90535,44.93223],[9.928,44.91918],[9.97965,44.88972],[10.03469,44.87374],[10.05313,44.86863],[10.07167,44.86339],[10.08709,44.85893],[10.09447,44.85684],[10.10343,44.85429],[10.14749,44.84181],[10.18141,44.8323],[10.20807,44.82604],[10.23413,44.82055],[10.24975,44.81745],[10.26058,44.81526],[10.27084,44.8132],[10.28619,44.81001],[10.29749,44.80776],[10.31247,44.80468],[10.32232,44.80259],[10.32812,44.80144],[10.33314,44.80048],[10.3363,44.79981],[10.33863,44.7991],[10.35783,44.79259],[10.36787,44.78914],[10.37198,44.78771],[10.37742,44.78598],[10.38123,44.78461],[10.39815,44.77891],[10.40615,44.77614],[10.41197,44.7741],[10.41753,44.77226],[10.42279,44.77048],[10.42832,44.77037],[10.43352,44.76785],[10.43644,44.76578],[10.43905,44.76496],[10.44519,44.7628],[10.45808,44.7584],[10.46223,44.75695],[10.4907,44.74721],[10.50411,44.74256],[10.51841,44.73766],[10.56091,44.72293],[10.56557,44.72144],[10.57247,44.71883],[10.57476,44.71814],[10.57976,44.7164],[10.58503,44.71451],[10.58715,44.71379],[10.59375,44.71154],[10.59731,44.71031],[10.59833,44.71],[10.60667,44.70697],[10.61373,44.70451],[10.61841,44.70291],[10.62415,44.70089],[10.62902,44.69926],[10.63106,44.69854],[10.6331,44.69786],[10.63677,44.69657],[10.64892,44.69231],[10.65568,44.68995],[10.6649,44.68661],[10.6706,44.68475],[10.67554,44.68345],[10.68587,44.67993],[10.68967,44.67804],[10.69886,44.67372],[10.71354,44.66842],[10.73571,44.66189],[10.74848,44.65757],[10.75384,44.65682],[10.76692,44.65529],[10.7792,44.65409],[10.78897,44.65424],[10.79675,44.65165],[10.80815,44.65076],[10.82383,44.64962],[10.83691,44.64837],[10.83891,44.64791],[10.85702,44.64629],[10.8672,44.65072],[10.8742,44.65364],[10.88439,44.65754],[10.89629,44.65861],[10.90632,44.65484],[10.91588,44.65082],[10.92259,44.64812],[10.92681,44.64616],[10.94043,44.64031],[10.94827,44.63718],[10.95698,44.63317],[10.96386,44.63064],[10.9902,44.61951],[11.01171,44.61044],[11.01821,44.60769],[11.02574,44.60452],[11.03126,44.60242],[11.04079,44.59912],[11.04208,44.59863],[11.06373,44.59114],[11.0664,44.59022],[11.07325,44.58797],[11.07899,44.58581],[11.09306,44.58089],[11.10358,44.57723],[11.11223,44.5744],[11.12812,44.5687],[11.1435,44.56324],[11.14955,44.56125],[11.15195,44.5604],[11.15575,44.55914],[11.16954,44.55429],[11.17541,44.55222],[11.18734,44.54814],[11.19096,44.54684],[11.19876,44.54417],[11.20414,44.54217],[11.21355,44.5389],[11.22377,44.53532],[11.23543,44.53144],[11.24066,44.52942],[11.25359,44.52485],[11.27068,44.51904],[11.2841,44.51419],[11.2866,44.51278],[11.29114,44.51076],[11.29525,44.50917],[11.30564,44.50687],[11.31421,44.5039],[11.31981,44.50185],[11.3277,44.49909],[11.33399,44.49684],[11.33782,44.49564],[11.34166,44.49505],[11.34627,44.49429],[11.37183,44.49474],[11.63409,44.4704],[12.20716,44.41549],[12.20532,44.42116]]}}]}