{"type":"FeatureCollection","features":[{"type":"Feature","properties":{"n":"Odoacer's road"},"geometry":{"type":"LineString","coordinates":[[15.57649,48.39363],[15.57647,48.39624],[15.54988,48.38544],[15.53917,48.38309],[15.5249,48.38276],[15.51505,48.38925],[15.5037,48.3967],[15.48651,48.39659],[15.47027,48.38847],[15.45966,48.37969],[15.45081,48.3722],[15.44307,48.36768],[15.42125,48.35913],[15.41264,48.35047],[15.40981,48.33634],[15.41075,48.32993],[15.41375,48.31646],[15.41349,48.3113],[15.41166,48.30515],[15.40949,48.29813],[15.40677,48.29105],[15.40552,48.28395],[15.40119,48.27914],[15.39001,48.27312],[15.38048,48.26632],[15.37801,48.26273],[15.37851,48.25819],[15.37201,48.25448],[15.36632,48.25105],[15.3509,48.24261],[15.34726,48.2377],[15.33309,48.2306],[15.30978,48.21537],[15.3035,48.21702],[15.29801,48.21616],[15.29408,48.21702],[15.28965,48.21787],[15.28458,48.21859],[15.27837,48.21752],[15.27373,48.21623],[15.26667,48.21159],[15.26131,48.21031],[15.25303,48.20956],[15.24111,48.20874],[15.23105,48.20838],[15.21663,48.20809],[15.20456,48.20816],[15.19888,48.20751],[15.19559,48.20743],[15.17887,48.20738],[15.1738,48.20738],[15.16723,48.20724],[15.16338,48.20781],[15.16023,48.20952],[15.15638,48.21052],[15.1511,48.21052],[15.14353,48.20923],[15.13739,48.20816],[15.13254,48.20709],[15.12775,48.20517],[15.1224,48.20388],[15.11698,48.20124],[15.11519,48.19474],[15.11569,48.19068],[15.11786,48.1867],[15.12204,48.18204],[15.12212,48.17725],[15.11826,48.1729],[15.11348,48.1689],[15.10755,48.16334],[15.10341,48.16355],[15.09978,48.16598],[15.08645,48.17358],[15.08182,48.17492],[15.07851,48.17273],[15.0773,48.17102],[15.07541,48.16966],[15.07305,48.16845],[15.06991,48.16863],[15.06406,48.16437],[15.05968,48.16313],[15.05635,48.16151],[15.05159,48.1599],[15.04722,48.15809],[15.0436,48.15761],[15.03846,48.15942],[15.03541,48.1598],[15.02714,48.1625],[15.02237,48.16332],[15.02038,48.16275],[15.01704,48.16123],[15.01219,48.15971],[15.00981,48.15961],[15.00534,48.15866],[15.00048,48.15866],[14.9981,48.15676],[14.99725,48.15453],[15.00144,48.15047],[14.99896,48.14905],[14.99363,48.14819],[14.98678,48.14828],[14.98383,48.14724],[14.98145,48.14838],[14.97431,48.14619],[14.9726,48.14457],[14.97164,48.14172],[14.96546,48.14429],[14.95908,48.148],[14.95204,48.15076],[14.94794,48.15285],[14.94461,48.15019],[14.94109,48.14838],[14.93871,48.14572],[14.93491,48.14077],[14.93349,48.13752],[14.93443,48.13306],[14.93157,48.13134],[14.92986,48.12953],[14.92596,48.13011],[14.92053,48.12773],[14.91387,48.12649],[14.90569,48.12782],[14.89426,48.12934],[14.88808,48.12773],[14.87723,48.12468],[14.86742,48.12202],[14.85753,48.11973],[14.85286,48.11849],[14.8461,48.11592],[14.84249,48.11459],[14.83982,48.11364],[14.83725,48.11069],[14.82983,48.10688],[14.8206,48.10279],[14.81355,48.09993],[14.80794,48.09898],[14.80118,48.09794],[14.80118,48.09993],[14.80041,48.10202],[14.79059,48.10558],[14.78034,48.10679],[14.77244,48.1104],[14.75844,48.11354],[14.74969,48.11126],[14.74426,48.1164],[14.74103,48.11935],[14.7277,48.11716],[14.72152,48.12049],[14.71028,48.12611],[14.69934,48.12754],[14.68497,48.13077],[14.67488,48.13496],[14.66841,48.14143],[14.6665,48.14486],[14.64889,48.14286],[14.63186,48.14676],[14.62386,48.15247],[14.61453,48.16199],[14.60407,48.17141],[14.59379,48.1756],[14.58436,48.17893],[14.57142,48.18303],[14.55943,48.18807],[14.54696,48.18712],[14.53592,48.19568],[14.52183,48.19835],[14.50527,48.20463],[14.487,48.21291],[14.47687,48.21408],[14.47348,48.21529],[14.45483,48.21605],[14.44626,48.21653],[14.43788,48.21348],[14.43398,48.20777],[14.42637,48.20863],[14.42085,48.20711],[14.41047,48.20863],[14.39829,48.20977],[14.38763,48.20653],[14.38316,48.20587],[14.37526,48.20406],[14.36745,48.20235],[14.3626,48.20063],[14.35898,48.19997],[14.35432,48.19892],[14.34918,48.19683],[14.3428,48.19397],[14.3389,48.19064],[14.33461,48.18893],[14.3289,48.18969],[14.32472,48.19178],[14.31615,48.19131],[14.31225,48.19445],[14.30768,48.19902],[14.30102,48.2032],[14.29474,48.20653],[14.28807,48.20853],[14.28217,48.21102],[14.27551,48.21177],[14.26447,48.20901],[14.25447,48.20634],[14.24581,48.20473],[14.24124,48.20235],[14.23354,48.19997],[14.22716,48.19749],[14.21859,48.19683],[14.20774,48.19112],[14.19794,48.18921],[14.18814,48.18874],[14.18128,48.1854],[14.17472,48.18407],[14.16025,48.17893],[14.15159,48.17579],[14.1453,48.17084],[14.13169,48.16675],[14.11827,48.16361],[14.10314,48.16275],[14.09324,48.16209],[14.08905,48.16304],[14.07506,48.15894],[14.07126,48.15771],[14.06526,48.15771],[14.06126,48.15799],[14.05393,48.15476],[14.04765,48.15114],[14.04384,48.1519],[14.03899,48.152],[14.03418,48.15148],[14.03279,48.15216],[14.03204,48.15523],[14.02978,48.15768],[14.02698,48.16157],[14.00437,48.15389],[13.99597,48.15161],[13.9911,48.14922],[13.98557,48.14633],[13.97862,48.14267],[13.97627,48.14264],[13.97194,48.14247],[13.96807,48.14064],[13.96349,48.13648],[13.96046,48.13272],[13.95761,48.13066],[13.95418,48.12792],[13.94613,48.12261],[13.93751,48.11832],[13.93202,48.1125],[13.92768,48.10725],[13.91632,48.10382],[13.90758,48.10222],[13.90039,48.10011],[13.89032,48.09429],[13.88544,48.09139],[13.88168,48.09072],[13.87469,48.09103],[13.86904,48.0914],[13.86185,48.0908],[13.85065,48.09023],[13.83104,48.08507],[13.81619,48.07618],[13.80315,48.06688],[13.78967,48.06137],[13.78229,48.05935],[13.77393,48.05489],[13.76232,48.04817],[13.75674,48.03879],[13.75209,48.03264],[13.7449,48.02693],[13.73687,48.02048],[13.73101,48.0155],[13.72663,48.01276],[13.717,48.00814],[13.70779,48.00534],[13.68879,48.00668],[13.68221,48.00618],[13.67702,48.00695],[13.66983,48.00856],[13.66179,48.01118],[13.6579,48.00986],[13.65214,48.00734],[13.63607,48.00373],[13.62094,48.00167],[13.60944,48.00263],[13.59273,47.99873],[13.58544,47.99861],[13.56754,48.00138],[13.54554,48.003],[13.52054,47.99945],[13.49963,47.9943],[13.48342,47.99657],[13.472,47.99556],[13.46355,47.99505],[13.45778,47.99112],[13.45344,47.98779],[13.44841,47.98824],[13.43953,47.98645],[13.43452,47.98553],[13.42471,47.98601],[13.4168,47.98514],[13.39447,47.98865],[13.38453,47.97574],[13.37382,47.96468],[13.3577,47.95611],[13.34146,47.96087],[13.32368,47.96426],[13.30446,47.95956],[13.29352,47.95243],[13.28376,47.9444],[13.27359,47.94118],[13.25604,47.94434],[13.2428,47.94395],[13.23635,47.94124],[13.23242,47.93285],[13.22451,47.92655],[13.20566,47.91834],[13.19669,47.9099],[13.19024,47.90122],[13.1784,47.8906],[13.17281,47.88263],[13.16052,47.87717],[13.14481,47.87134],[13.13385,47.86797],[13.12779,47.86175],[13.12163,47.85512],[13.10552,47.84821],[13.09741,47.84364],[13.08919,47.83907],[13.08274,47.82891],[13.07645,47.82086],[13.06636,47.81179],[13.04774,47.8095],[13.06636,47.81179],[13.08237,47.7852],[13.07801,47.76728],[13.08158,47.75643],[13.08437,47.74558],[13.08837,47.73616],[13.08765,47.72595],[13.09094,47.71596],[13.09251,47.70411],[13.10114,47.68426],[13.11878,47.67327],[13.12363,47.66128],[13.1287,47.64986],[13.13869,47.63322],[13.16218,47.60617],[13.17602,47.58711],[13.19194,47.57676],[13.16939,47.56363],[13.17081,47.55106],[13.17205,47.53935],[13.16786,47.52403],[13.16929,47.51251],[13.17976,47.49338],[13.19175,47.48482],[13.19842,47.4734],[13.20546,47.46226],[13.21717,47.45151],[13.22906,47.43761],[13.25552,47.43418],[13.28855,47.42971],[13.31101,47.41981],[13.34442,47.42666],[13.37259,47.42286],[13.3882,47.41477],[13.39582,47.39678],[13.412,47.38888],[13.42418,47.38488],[13.43227,47.38355],[13.43636,47.38279],[13.44064,47.38383],[13.44597,47.38478],[13.45092,47.38659],[13.45597,47.3864],[13.46035,47.38602],[13.4652,47.38659],[13.47053,47.3864],[13.47329,47.38574],[13.47405,47.37841],[13.48052,47.37041],[13.49233,47.36327],[13.50023,47.35185],[13.50308,47.34338],[13.50736,47.33301],[13.50908,47.32387],[13.5106,47.31645],[13.5066,47.30769],[13.50613,47.30188],[13.50527,47.29218],[13.50651,47.28485],[13.50194,47.27571],[13.49937,47.26096],[13.50974,47.2523],[13.51907,47.25391],[13.53087,47.25173],[13.53982,47.25087],[13.5581,47.2483],[13.57209,47.24002],[13.57685,47.23336],[13.58303,47.21461],[13.58579,47.20699],[13.59055,47.20004],[13.59912,47.19062],[13.61263,47.18529],[13.62976,47.17796],[13.63709,47.17159],[13.64832,47.16587],[13.65194,47.15921],[13.65365,47.15245],[13.65975,47.14522],[13.6724,47.14303],[13.68383,47.13037],[13.69591,47.10972],[13.7001,47.10068],[13.69886,47.09287],[13.71178,47.1028],[13.72905,47.10794],[13.75404,47.11679],[13.77103,47.12221],[13.79044,47.13035],[13.80172,47.13506],[13.81,47.12507],[13.81329,47.11707],[13.81686,47.10922],[13.82028,47.10037],[13.81928,47.09195],[13.81314,47.08452],[13.81942,47.07739],[13.83185,47.07439],[13.84349,47.07603],[13.84752,47.07574],[13.85195,47.07417],[13.86023,47.0731],[13.86801,47.07078],[13.87176,47.07093],[13.87597,47.06943],[13.88007,47.06832],[13.88328,47.06839],[13.88678,47.06689],[13.89471,47.06582],[13.90049,47.06596],[13.90619,47.06827],[13.90999,47.07003],[13.91394,47.07032],[13.91542,47.07256],[13.92075,47.07422],[13.92656,47.07717],[13.93203,47.08088],[13.93737,47.0841],[13.94788,47.08444],[13.95284,47.08421],[13.95753,47.08399],[13.96792,47.08444],[13.97786,47.08553],[13.98094,47.08204],[13.98277,47.07633],[13.98505,47.07045],[13.98505,47.06748],[13.98711,47.06571],[13.99049,47.06196],[13.99305,47.05709],[13.99539,47.05458],[13.99881,47.04898],[14.00167,47.04384],[14.00258,47.04064],[14.00196,47.03836],[14.00407,47.03744],[14.00664,47.03139],[14.00892,47.02859],[14.0059,47.02345],[14.00441,47.02088],[14.00407,47.01774],[14.00641,47.01403],[14.01007,47.01169],[14.01132,47.00404],[14.01395,47.00101],[14.01515,46.99461],[14.01543,46.98993],[14.01355,46.98679],[14.00864,46.98302],[14.00601,46.97868],[14.00967,46.97485],[14.01429,46.97171],[14.01715,46.96852],[14.02337,46.96212],[14.02531,46.95367],[14.02491,46.94978],[14.03262,46.94247],[14.04016,46.93865],[14.05221,46.93654],[14.0544,46.94336],[14.06225,46.94921],[14.07353,46.95035],[14.08652,46.9505],[14.10308,46.95035],[14.11893,46.95478],[14.12507,46.95563],[14.13849,46.95935],[14.14648,46.9642],[14.15433,46.97105],[14.18374,46.97905],[14.19574,46.98048],[14.20973,46.98105],[14.22372,46.98133],[14.23799,46.98262],[14.24656,46.98362],[14.25584,46.98504],[14.26098,46.97919],[14.26928,46.97404],[14.27983,46.97405],[14.29439,46.9732],[14.30438,46.97248],[14.31366,46.97177],[14.32465,46.96863],[14.33522,46.96934],[14.3455,46.96963],[14.35406,46.96991],[14.3602,46.96948],[14.36663,46.97091],[14.3819,46.96991],[14.38978,46.9666],[14.40161,46.96617],[14.41637,46.94756],[14.43341,46.91922],[14.43668,46.90553],[14.44293,46.89234],[14.44992,46.8776],[14.44349,46.85619],[14.43992,46.81907],[14.40709,46.80479],[14.3915,46.794],[14.3829,46.78828],[14.37327,46.78222],[14.37291,46.77579],[14.38005,46.76758],[14.3854,46.75866],[14.38647,46.75509],[14.38469,46.74974],[14.38326,46.74224],[14.38326,46.73582],[14.38112,46.72654],[14.37577,46.7194],[14.36399,46.70726],[14.3592,46.70142],[14.34922,46.69401],[14.34482,46.69046],[14.32901,46.67768],[14.31921,46.66884],[14.30996,46.66351],[14.30415,46.66088],[14.2968,46.66021],[14.28828,46.65992],[14.28266,46.66221],[14.276,46.66489],[14.27001,46.6657],[14.26647,46.66666],[14.26195,46.66676],[14.25384,46.67027],[14.24879,46.67052],[14.24222,46.6704],[14.23682,46.67047],[14.23089,46.67041],[14.2251,46.66927],[14.22196,46.66736],[14.21887,46.66599],[14.21218,46.66464],[14.20698,46.66331],[14.20198,46.66295],[14.19781,46.66294],[14.18869,46.66105],[14.1848,46.66062],[14.17971,46.6601],[14.17597,46.65918],[14.17077,46.66072],[14.16965,46.66354],[14.16667,46.66702],[14.16382,46.66846],[14.16232,46.67047],[14.16111,46.67136],[14.15552,46.67147],[14.15305,46.6704],[14.1516,46.66904],[14.14922,46.66484],[14.13867,46.66261],[14.13706,46.66299],[14.13198,46.66189],[14.12783,46.66171],[14.12264,46.65898],[14.11764,46.65732],[14.09956,46.65696],[14.09575,46.65601],[14.08964,46.6537],[14.0854,46.64994],[14.08171,46.6497],[14.07564,46.64768],[14.07267,46.64697],[14.06589,46.64673],[14.06089,46.64602],[14.05554,46.64495],[14.05209,46.64459],[14.04888,46.64483],[14.04566,46.64602],[14.0396,46.64697],[14.02936,46.64697],[14.0209,46.64793],[14.01211,46.64863],[14.00783,46.65054],[14.00378,46.65161],[13.99819,46.65256],[13.99201,46.65113],[13.98677,46.6503],[13.97642,46.65054],[13.97142,46.65113],[13.96536,46.65137],[13.96179,46.65042],[13.95679,46.64982],[13.95215,46.6453],[13.94611,46.64166],[13.94192,46.64007],[13.93169,46.63733],[13.92657,46.63614],[13.91884,46.63483],[13.90801,46.63364],[13.9029,46.634],[13.89528,46.63257],[13.87626,46.6358],[13.87593,46.63177],[13.87527,46.62624],[13.87307,46.62594],[13.86784,46.62564],[13.86421,46.62433],[13.85969,46.62255],[13.8557,46.62076],[13.85303,46.61835],[13.8447,46.61333],[13.83712,46.60961],[13.83289,46.60072],[13.82816,46.5877],[13.82337,46.58327],[13.81718,46.58105],[13.81451,46.57729],[13.81282,46.57464],[13.80996,46.57214],[13.80804,46.56831],[13.80307,46.56267],[13.7962,46.55734],[13.78525,46.55433],[13.77435,46.55409],[13.76637,46.55044],[13.75829,46.54783],[13.74529,46.54757],[13.73335,46.54756],[13.72458,46.54808],[13.71759,46.54853],[13.70643,46.54923],[13.699,46.54941],[13.6919,46.54898],[13.68713,46.54877],[13.68085,46.54734],[13.67671,46.54768],[13.67093,46.54721],[13.66787,46.54623],[13.66111,46.54594],[13.65488,46.54512],[13.65157,46.54319],[13.64786,46.54028],[13.64482,46.53853],[13.64282,46.53732],[13.63951,46.53427],[13.63802,46.53129],[13.63485,46.52843],[13.63295,46.52795],[13.62657,46.52714],[13.62521,46.52626],[13.62255,46.52479],[13.61809,46.52252],[13.61442,46.51998],[13.61126,46.51883],[13.60809,46.51796],[13.60677,46.51812],[13.60585,46.51801],[13.60414,46.51482],[13.60345,46.51188],[13.60127,46.51084],[13.59934,46.50934],[13.59722,46.50775],[13.59382,46.50575],[13.58604,46.49385],[13.57771,46.48223],[13.57083,46.46969],[13.57462,46.45871],[13.5732,46.44387],[13.56603,46.43064],[13.57051,46.42355],[13.57673,46.41877],[13.5847,46.42025],[13.59399,46.42376],[13.60651,46.41864],[13.61789,46.41559],[13.61249,46.41202],[13.59616,46.3995],[13.58863,46.39229],[13.58542,46.38504],[13.58545,46.37786],[13.58724,46.36881],[13.58767,46.35688],[13.5774,46.34509],[13.55655,46.33353],[13.52781,46.32527],[13.49705,46.31765],[13.48648,46.31349],[13.48575,46.29919],[13.49943,46.29133],[13.52053,46.28286],[13.53711,46.27761],[13.55125,46.27237],[13.57154,46.26438],[13.58306,46.25875],[13.58559,46.24652],[13.58301,46.24352],[13.57134,46.24234],[13.56307,46.24315],[13.55488,46.24258],[13.54568,46.24222],[13.53937,46.24044],[13.53014,46.24139],[13.52278,46.24557],[13.5153,46.24442],[13.50834,46.24246],[13.50203,46.23698],[13.50149,46.23116],[13.50006,46.22507],[13.50065,46.21906],[13.49521,46.21413],[13.48767,46.20852],[13.47635,46.20422],[13.47061,46.19778],[13.4711,46.19034],[13.47503,46.1861],[13.47911,46.17785],[13.48689,46.17198],[13.48757,46.16643],[13.48882,46.15564],[13.48893,46.1484],[13.48669,46.14106],[13.48471,46.13312],[13.48437,46.12398],[13.47948,46.11431],[13.4716,46.10486],[13.463,46.09947],[13.44698,46.09215],[13.43606,46.08844],[13.43584,46.08457],[13.43594,46.07916],[13.43531,46.07367],[13.43374,46.06762],[13.43536,46.06308],[13.43554,46.05751],[13.43504,46.05324],[13.43748,46.04811],[13.43848,46.04362],[13.4397,46.03861],[13.44152,46.03621],[13.44209,46.03213],[13.44094,46.02503],[13.43934,46.01985],[13.43813,46.01679],[13.43701,46.01033],[13.43767,46.00401],[13.43951,45.99793],[13.44073,45.99241],[13.44499,45.98655],[13.4489,45.98088],[13.44849,45.9769],[13.45286,45.97476],[13.45522,45.9738],[13.45849,45.96895],[13.46116,45.96478],[13.4624,45.96107],[13.46486,45.95759],[13.46659,45.9566],[13.46879,45.9515],[13.47173,45.94542],[13.47127,45.93984],[13.4694,45.92448],[13.46732,45.90835],[13.46606,45.89754],[13.47003,45.88648],[13.47261,45.88145],[13.46714,45.88074],[13.46132,45.87795],[13.44947,45.86977],[13.43722,45.85953],[13.43631,45.85777],[13.42712,45.85141],[13.41537,45.84612],[13.40966,45.84098],[13.40121,45.83713],[13.402,45.83212],[13.40176,45.82915],[13.3973,45.82566],[13.39373,45.82216],[13.39747,45.81655],[13.3964,45.81305],[13.39168,45.80375],[13.37676,45.78196],[13.37374,45.77813],[13.36852,45.76958],[13.37095,45.76963],[13.36852,45.76958],[13.35604,45.76956],[13.31595,45.78464],[13.26113,45.8167],[13.24894,45.82745],[13.23431,45.82736],[13.226,45.82916],[13.21565,45.83349],[13.21002,45.83251],[13.19114,45.83431],[13.12639,45.81544],[13.09144,45.80677],[13.076,45.80334],[13.02868,45.79394],[12.98795,45.78853],[12.98083,45.78413],[12.92147,45.76305],[12.91648,45.75909],[12.91647,45.75672],[12.91226,45.75595],[12.90722,45.75557],[12.90085,45.75576],[12.89059,45.75559],[12.87767,45.75459],[12.8738,45.75358],[12.869,45.75396],[12.86339,45.75395],[12.85853,45.75412],[12.85078,45.7545],[12.846,45.7553],[12.84365,45.75671],[12.81713,45.75915],[12.78825,45.75395],[12.78013,45.74928],[12.76962,45.74668],[12.75862,45.74691],[12.73587,45.73895],[12.70659,45.72709],[12.68468,45.71051],[12.67207,45.69884],[12.67036,45.69417],[12.666,45.68671],[12.66029,45.68542],[12.63721,45.68422],[12.62951,45.67785],[12.6209,45.65368],[12.6107,45.63858],[12.59691,45.633],[12.58412,45.63086],[12.56758,45.63042],[12.56337,45.62789],[12.56194,45.62363],[12.54852,45.61957],[12.52326,45.61176],[12.50368,45.60253],[12.47332,45.59171],[12.45978,45.58765],[12.44714,45.5761],[12.4378,45.5665],[12.42764,45.56389],[12.42037,45.56021],[12.39993,45.54827],[12.39637,45.54561],[12.39268,45.54356],[12.38158,45.53589],[12.37411,45.53099],[12.36032,45.52366],[12.34035,45.51181],[12.33095,45.50561],[12.32138,45.50007],[12.31308,45.49436],[12.30005,45.48805],[12.29272,45.48617],[12.28458,45.48484],[12.27476,45.48247],[12.25471,45.48184],[12.24061,45.47992],[12.22988,45.47166],[12.22426,45.46368],[12.22185,45.45864],[12.2154,45.45373],[12.21332,45.44934],[12.21065,45.44536],[12.20482,45.44286],[12.1821,45.43224],[12.17374,45.42693],[12.16182,45.4202],[12.15095,45.41303],[12.13868,45.40744],[12.12655,45.38419],[12.10996,45.34765],[12.10208,45.32994],[12.10063,45.30158],[12.09678,45.26566],[12.09699,45.20988],[12.08894,45.19191],[12.08184,45.16916],[12.06196,45.13356],[12.05936,45.11439],[12.05655,45.10016],[12.05522,45.0913],[12.05409,45.08264],[12.0536,45.07646],[12.05228,45.06298],[12.05171,45.05958],[12.05329,45.056],[12.0545,45.05177],[12.05595,45.04734],[12.05793,45.0433],[12.05863,45.04181],[12.06121,45.036],[12.07106,45.02267],[12.0769,45.01447],[12.10884,44.99743],[12.13241,44.98118],[12.13654,44.97542],[12.13915,44.97158],[12.14465,44.96438],[12.14903,44.96071],[12.15462,44.95651],[12.16778,44.94961],[12.17469,44.94207],[12.17349,44.92863],[12.16019,44.89159],[12.14868,44.86381],[12.14915,44.86175],[12.14461,44.85117],[12.13832,44.82762],[12.12882,44.77315],[12.12392,44.74336],[12.11007,44.69523],[12.09469,44.65962],[12.08192,44.61059],[12.09332,44.57319],[12.12365,44.55312],[12.15482,44.54306],[12.16526,44.53261],[12.17217,44.49875],[12.17729,44.48028],[12.2015,44.43527],[12.202,44.42679],[12.20355,44.42422],[12.20532,44.42116]]}}]}